"city","facebook","latitude","longitude","name","state","street","tags","twitter","type","website","zip"
"Bentonville","","36.3296074","-94.2898468","Anglin Beef","AR","5985 S.W. Anglin Road","","","farm","http://www.anglinbeef.com","72712"
"Springdale","https://www.facebook.com/AppelFarmsNWA","36.193514","-94.195752","Appel Farms","AR","5909 Elm Springs Road","fresh-fruits fresh-vegetables","","farm","","72762"
"Mt Pleasant","","36.0948783","-91.913419","earthartandfoods.com","AR","10309 Lafferty road","","","farm","earthartandfoods.com","72561"
"Cave Springs ","facebook.com/ewebetfarm","36.281402","-94.219384","Ewe Bet Farm","AR","","red-meat non-poultry-meat","@ewebetfarm","farm","Www.ewebetfarm.com","72718"
"Harrison","www.facebook.com/fentonsberryfarmAR","36.167198","-93.122859","Fenton's Farm Market","AR","6715 Highway 7 South","crafts woodworking eggs fresh-fruits fresh-vegetables honey","","farm","www.fentonsberryfarm.com","72601"
"Van Buren","","35.454841","-94.356587","M&M Farms","AR","1414 Fayetteville Rd","eggs red-meat non-poultry-meat","","farm","","72956"
"Fayetteville","https://www.facebook.com/pages/Mason-Creek-Farm/125513010889959","35.9715879","-94.0963900","Mason Creek Farm","AR","15620 Black Oak Quarry Road","eggs poultry fowl","","farm","http://www.masoncreekfarm.com/","72701"
"Pea Ridge","Mcgarrah farms","36.4491077","-94.0784586","McGarrah Farms","AR","14816 Miser Road","fresh-fruits fresh-vegetables","","farm","www.mcgarrahfarms.com","72751"
"Lamar","Facebook.com/peachpickinparadise ","35.475917","-93.394360","Peach Pickin' Paradise","AR","1901 McGuire road","fresh-fruits","@treeripepeach","farm","","72846"
"London","https://www.facebook.com/pages/Renees-Berry-Garden/172150249512730","35.3528890","-93.2818530","Renee's Berry Garden","AR","1265 Will Baker Road","honey","","farm","sites.google.com/site/reneesberrygarden/","72847"
"Bruno","https://www.facebook.com/SchotsSlopesFarm","36.155341","-92.748771","Schot's Slopes Farm","AR","134 Keystone Lane","dairy products eggs poultry fowl","","farm","htp//schotsslopesfarm.com","72682"
"Oakrk","https://www.facebook.com/pages/Baughmans-Farm/780067088704026?ref=bookmarks","35.5700483","-93.459919","SLB3","AR","460 CR 6220","eggs poultry fowl red-meat non-poultry-meat","","farm","baughmansfarm.com","72852"
"North Little Rock","www.facebook.com/stjosephfarmstand","34.816400","-92.271114","St. Joseph Farm Stand","AR","6800 Camp Robinson Rd","baked-goods bedding plants canned preserved coffee tea crafts woodworking cut-flowers dairy products eggs herbs fresh-fruits fresh-vegetables grains flour honey mushrooms nursery-stock nuts poultry fowl prepared-foods red-meat non-poultry-meat soap body-care wild-harvested forest-products","@sjfarmstand","farm","www.stjosephcenter.org","72118"
"Booneville","https://www.facebook.com/sunnylandberryfarm?ref_type=bookmark","35.1725090","-94.0256390","Sunnyland Berry Farm","AR","6688 West State Highway 10","fresh-fruits fresh-vegetables","","farm","","72927"
"Gentry","","36.246170","-94.512708","Taylors Orchard","AR","12801 Taylor Orchard Road","fresh-fruits","","farm","","72734"
"Ward","Willow Tree Farms","34.971839","-91.872998","Willow Tree Farms","AR","42 Willow Tree Rd","fresh-vegetables honey","","farm","","72176"
"Jonesboro","https://www.facebook.com/asuregionalfarmersmarket","35.840771","-90.667327","ASU Regional Farmers' Market","AR","3300 Aggie Road","baked goods crafts flowers eggs herbs vegetables honey jams maple meat nuts plants poultry prepared-foods soap trees coffee fruits pet food","https://twitter.com/asufarmersmarket","market","http://www.asuregionalfarmersmarket.org","72401"
"Bentonville ","https://www.facebook.com/142086697017/","36.372637","-94.208458","Bentonville Farmers Market ","AR","100 N. Main Street ","baked goods cheese crafts flowers eggs herbs vegetables honey jams plants poultry prepared-foods soap coffee fruits mushrooms","","market","https://www.downtownbentonville.org/event/fm","72712"
"Charleston","https://www.facebook.com/Charleston-Ar-Farmers-Market-1593672464260381/","35.2970353","-94.0363153","Charleston Farmers Market","AR","","baked goods crafts vegetables honey plants prepared-foods soap coffee fruits","","market","","72933"
"Conway","https://www.facebook.com/ConwayFarmersMktAntioch","35.077695","-92.412570","Conway Farmers' Market","AR","150 Amity Rd.","baked goods crafts flowers eggs herbs vegetables honey jams meat plants poultry prepared-foods soap fruits pet food","","market","","72032"
"Wynne","","35.223532","-90.786483","Cross County Farmer's Market","AR","705 E. Union Avenue, Room 2","baked goods crafts vegetables honey jams soap","","market","","72396"
"Fordyce","Dallas County Farmer's Market","33.812858","-92.414240","Dallas County Farmer's Market","AR","206 West 3rd St.","baked goods crafts vegetables honey jams","","market","","71742"
"Dardanelle","fb.me/dardanellefarmersmarket","35.220839","-93.153099","Dardanelle Farmers Market","AR","120 N Front St","organic baked goods crafts flowers eggs herbs vegetables honey jams meat plants prepared-foods soap fruits grains pet food","","market","",""
"Conway","downtownconwayfarmersandcraftsmarket","35.088507","-92.440867","Downtown Conway Farmers' & Crafts Market","AR","718 Parkway","baked goods crafts flowers eggs herbs vegetables jams meat plants poultry prepared-foods soap fruits mushrooms","","market","","72032"
"Newport","","35.6268","-91.234721","Downtown Newport Farmers Market","AR","Corner of Hwy 101 & Angle St","baked goods crafts vegetables jams plants","","market","http://newportfarmersmarket.org","72112"
"ROGERS","https://www.facebook.com/DTRMarket","36.332762","-94.116000","Downtown Rogers Farmers Market","AR","Railyard Park","baked goods crafts flowers eggs vegetables honey jams meat nuts poultry soap mushrooms","","market","https://www.downtownrogersinc.org/market","72756"
"Eureka Springs","https://www.facebook.com/ESFarmersMarket","36.398616","-93.746149","Eureka Springs Farmers Market","AR","44 Kingshighway","organic baked goods cheese crafts flowers eggs herbs vegetables jams meat plants prepared-foods soap fruits mushrooms","","market","","72632"
"Gravette","","36.419093","-94.446383","Farmers Market of Gravette","AR","Hwy. 72 east","baked goods crafts flowers eggs herbs vegetables honey jams meat plants trees fruits","","market","","72736"
"Texarkana","https://www.facebook.com/gatewayfarmersmarket","33.430404","-94.029671","Gateway Farmers Market","AR","602 Jefferson Avenue","baked goods crafts flowers eggs vegetables honey jams meat prepared-foods soap fruits","","market","","71854"
"Stuttgart ","https://www.facebook.com/GrandPrairieFarmersMarket","34.498020","-91.552370","Grand Prairie Farmers Market","AR","505 S. Main St.","baked goods crafts vegetables fruits","","market","","72160"
"Hot Springs","facebook.com/hotspringsfarmersmarket","34.504886","-93.050943","Historic Downtown Farmers Market","AR","121 Orange Street","baked goods crafts flowers eggs herbs vegetables honey jams meat plants poultry soap coffee beans fruits mushrooms","twitter.com/hs_farmersmkt","market","http://hotspringsfarmermarket.com","71901"
"Lewisville ","https://www.facebook.com/Lafayette-County-Farmers-Market-At-Lewisville-1709681622637869/","33.355445","-93.577673","Lafayette County Farmers Market","AR","224 E. First Street","flowers eggs vegetables honey plants soap fruits","","market","","71845"
"Ashdown","https://www.facebook.com/LRCFarmersMarket/","33.661403","-94.117600","Little River County Farmers Market","AR","","baked goods vegetables jams fruits","","market","","71822"
"Paragould, AR","https://www.facebook.com/paragouldmarket","36.055570","-90.486623","Paragould Farmers' Market","AR","100 W. Emerson","baked goods crafts herbs vegetables honey jams plants soap fruits pet food","","market","","72450"
"Pocahontas ","Randolph County Farmers' Market","36.257409","-90.983393","Randolph County Farmers' Market","AR","1966 Highway 62 West","baked goods flowers eggs herbs vegetables jams fruits","","market","","72455"
"Russellville","@russellvilleCM","35.280402","-93.135468","Russellville Community Market","AR","320 West C St. ","organic baked goods cheese crafts flowers eggs herbs vegetables honey jams meat nuts plants poultry prepared-foods soap trees coffee fruits pet food tofu","","market","http://russellville.locallygrown.net","72801"
"Pine Bluff ","https://www.facebook.com/pages/Saracen-Landing-Farmers-Market/384646718262191","34.231049","-92.004296","Saracen Landing Farmers Market","AR","200 Lake Saracen Drive","baked goods crafts eggs herbs vegetables honey jams maple soap fruits","","market","","71601"
"De Queen","https://m.facebook.com/SevierCountyFarmersMarketDeQueenArkansas","34.042245","-94.342133","Sevier County Farmers Market","AR","Herman Dierks Park   604 East Hayes Avenue","baked goods crafts flowers eggs herbs vegetables honey jams meat plants soap fruits","","market","","71832"
"Siloam Springs ","Facebook.com/SiloamSpringsFarmersMarket","36.181621","-94.541074","Siloam Springs Farmers Market ","AR","205 Jefferson Street","baked goods crafts flowers eggs vegetables jams meat plants poultry soap coffee","","market","http://www.mainstreetsiloam.org/farmersmarket","72761"
"Springdale ","Springdale Farmers’ Market at the Jones Center ","36.187450","-94.118450","Springdale Farmers’ Market","AR","992 E. Emma Ave.","baked goods crafts flowers eggs vegetables honey jams plants prepared-foods soap fruits","","market","http://springdale.locallygrown.net","72764"
"Tontitown, AR","https://www.facebook.com/Tontitown-Farmers-Market-101353608349771/","36.175764","-94.232501","Tontitown Farmers' Market","AR","235 E. Henri De Tonti Blvd","organic baked goods crafts flowers eggs herbs vegetables honey jams plants prepared-foods soap coffee fruits pet food wild","https://twitter.com/TontitownM","market","https://www.tontitown.com/tontitown-farmers-market/","72770"
"Eureka Springs","https://www.facebook.com/SaturdayFarmersMarket","36.404902","-93.741728","White St. Saturday Market","AR","26 White St.","organic baked goods flowers eggs vegetables jams fruits","","market","","72632"
