"city","facebook","latitude","longitude","name","state","street","tags","twitter","type","website","zip"
"St. Charles","https://www.facebook.com/bennesbest","38.718752","-90.658483","Benne's Best Meat","MO","850 South Breeze","eggs fresh-vegetables poultry fowl red-meat non-poultry-meat","","farm","www.bennesbest.com","63304"
"Forsyth","https://www.facebook.com/beyondeden","36.6569689","-93.0777380","Beyond Eden","MO","1804 Burmingham Rd","poultry fowl","","farm","vintagepoultry.com","65653"
"Ashland","https://www.facebook.com/pages/Blue-Fox-Farm/357267831061749","38.7866936","-92.3456505","Blue Fox Farm","MO","120 E Fox Hollow Rd","baked-goods canned preserved coffee tea cut-flowers dairy products eggs herbs fresh-fruits fresh-vegetables honey juices ciders maple-products mushrooms poultry fowl prepared-foods red-meat non-poultry-meat soap body-care wild-harvested forest-products wine spirits beer hard-cider","","farm","http://www.bluefoxfood.com/","65010"
"Ash Grove","https://www.facebook.com/bluesilobeef","37.173422","-93.638307","Blue Silo Beef","MO","7226 Highway O","red-meat non-poultry-meat","","farm","https://bluesilobeef.com/","65604"
"Camdenton","https://www.facebook.com/pages/Canyon-Goat-Company/218608414896707?sk=info","38.0903328","-92.8551303","Canyon Goat Company, Inc.","MO","324 Velvet Antler Road","red-meat non-poultry-meat","","farm","http://www.canyongoat.com/index.html","65020"
"Augusta ","","38.5742400","-90.8878600","Centennial Farms and Orchard","MO","199 Jackson St.","baked-goods bedding plants canned preserved herbs fresh-fruits fresh-vegetables honey soap body-care","","farm","CENTENNIAL FARMS.BIZ","63332"
"Paris","","39.394888","-91.997360","Davis Farm","MO","13948 Highway 15","grains flour red-meat non-poultry-meat","","farm","","65275"
"Richland","","37.7770030","-92.4438987","Farm Market","MO","30305 Thrush Drive","bedding plants fresh-fruits fresh-vegetables","","farm","","65556"
"Boonville","https://www.facebook.com/boatrightfarms/","38.8851101","-92.7573691","Fed From The Farm","MO","13906 Osage Valley Rd","dairy products eggs poultry fowl red-meat non-poultry-meat","","farm","https://fedfromthefarm.com/","65233"
"Verona","","36.896851","-93.827266","G's Orchard","MO","2096 Farm Road 1130","fresh-fruits fresh-vegetables","","farm","","65769"
"Weston","https://www.facebook.com/greendirtfarm","39.4111092","-94.9016298","Green Dirt Farm, LLC","MO","P.O. Box 74","dairy products red-meat non-poultry-meat","","farm","","64098"
"Wheatland","","37.993085","-93.383060","Green Gate Family Farm LLC","MO","RR 71 Box 1168","cut-flowers eggs fresh-fruits fresh-vegetables mushrooms poultry fowl","","farm","","65779"
"Hartville","","37.286090","-92.555292","Greenhill Vineyard and Farm.  We sell grapes.","MO","4905 highway 5","fresh-fruits","","farm","www.greenhillgrapes.com","65667"
"richmond","www.facebook.com/hainesfarms","39.350219","-93.963643","haines farms","MO","41903 e. 144th","bedding plants crafts woodworking cut-flowers eggs herbs fresh-fruits fresh-vegetables nursery-stock nuts wild-harvested forest-products","","farm","","64085"
"Sikeston","Hamra Farms","36.828947","-89.676996","Hamra Farms","MO","160 county road 831","canned preserved fresh-vegetables","https://www.twitter.com/HamraFarms","farm","","63801"
"Lonedell","","38.238180","-90.868656","Hart Apiaries","MO","3738 Highway 47","fresh-fruits honey","","farm","www.hartapiaries.com","63060"
"Lampe","https://www.facebook.com/HeritageRanchBB","36.509845","-93.495140","Heritage Farm and Ranch","MO","4738 W. State Hwy 86","canned preserved eggs herbs fresh-fruits fresh-vegetables red-meat non-poultry-meat","","farm","http://www.heritageranch.co/","65681"
"St. Charles","https://www.facebook.com/pages/Hermans-Farm-Orchard/159616344096544","38.832144","-90.470826","Hermans Farm Orchard","MO","3663 N. Highway 94","bedding plants canned preserved eggs herbs fresh-fruits fresh-vegetables honey juices ciders nursery-stock","","farm","www.hermansfarmorchard.com","63301"
"Cape Girardeau","https://www.facebook.com/hinkebeins?rf=110698638992813","37.371078","-89.494019","Hinkebein Hills Farm","MO","434 Whispering Wind Lane","eggs poultry fowl red-meat non-poultry-meat","","farm","","63701"
"Spickard","https://www.facebook.com/HomesteadHillFarmandNursery/","40.189456","-93.588959","Homestead Hill Farm & Nursery","MO","26 NE 80th Street","baked-goods bedding plants canned preserved crafts woodworking cut-flowers eggs herbs fresh-fruits fresh-vegetables nursery-stock soap body-care wild-harvested forest-products","","farm","homesteadhillfarming.com","64679"
"Bates City","","39.025235","-94.066232","John & Linda Fruit and Berry Farm","MO","2428 Texas Prairie Rd","cut-flowers fresh-fruits fresh-vegetables","","farm","","64011"
"West Plains","","36.8335309","-91.8615530","Jolliff Farm","MO","5550 County Road 1820","fresh-fruits fresh-vegetables","","farm","http://jollifffarm.wordpress.com/","65775"
"Jefferson City","lagefarms.com","38.469585","-92.089989","Lage Farms LLC","MO","8001 Bode Ferry Rd","red-meat non-poultry-meat","","farm","lagefarms.com","65101"
"Louisiana","Www.facebook.com/lilsproutsfarm","39.427775","-91.076797","Lil' Sprouts Farm","MO","11529 HWY NN","cut-flowers dry beans eggs herbs fresh-fruits fresh-vegetables grains flour mushrooms soap body-care wild-harvested forest-products","","farm","www.EarthSprouts.com","63353"
"Brashear","www.facebook.com/lostbranchblueberryfarm","40.1729085","-92.4550740","Lost Branch Blueberry Farm","MO","21507 Lost Branch Way","","@pricefamilylbbf","farm","www.lostbranchblueberries.com","63533"
"West Plains","","36.591597","-91.901681","Lucky Falling Star Ranch LLC","MO","12465 ST RT JJ","eggs red-meat non-poultry-meat","","farm","www.luckyfallingstarranch.com ","65775"
"Salem","https://www.facebook.com/pages/Meramec-Bison-Farm-LLC/195576180525013","37.638961","-91.535215","Meramec Bison Farm, LLC","MO","603 South Main Street","","","farm","www.meramecbison.com","65560"
"Louisiana","Meyer farm","39.411628","-91.143758","Meyer farm","MO","17819 Hwy UU","cut-flowers herbs fresh-fruits fresh-vegetables honey prepared-foods","","farm","","63353"
"La Grange ","www.facebook.com/MilesFarmsMarket","40.048545","-91.591174","Miles Farms","MO","29286 State Highway C","baked-goods herbs fresh-fruits fresh-vegetables soap body-care","https://twitter.com/Miles_Farms","farm","","63448"
"Marshfield","Millers Berry Farm","37.294758","-92.927052","Millers Berry Farm","MO","11425 Street Highway KK","fresh-fruits","","farm","","65706"
"Koshkonong","","36.5958946","-91.6456994","Missouri's Best Beef Co-Op","MO","Rt. 81, Box 149","","","farm","www.mobest beef.com","65692"
"Sullivan","https://www.facebook.com/pages/Northern-Prairie-Alpacas-LLC/122810441106955?ref=bookmarks","38.2798417","-91.2978842","Northern Prairie Alpacas, LLC","MO","7470 Jakes Prairie Road","","","farm","http://www.northernprairiealpacas.com/","63080"
"Granby","https://www.facebook.com/pages/OakWoods-Farm/260088397378669","36.9352568","-94.2634316","OakWoods Farm","MO","1775 Old Hwy E","bedding plants canned preserved eggs herbs fresh-fruits fresh-vegetables mushrooms","https://twitter.com/oakwoodsfarm","farm","oakwoodsfarm.com","64844"
"Leasburg","https://www.facebook.com/Berries.Bugs.Blooms","38.090853","-91.308962","Ozark Berry Farm","MO","552 Lick Creek","fresh-fruits","","farm","Ozarkberryfarm.com","65535"
"Pierce City","www.facebook.com/hatfieldtomatofarm","36.9292199","-94.0961713","Ozark Country Creations","MO","30226 Holly Rd","fresh-vegetables","","farm","","65723"
"Wright City","","38.785607","-91.012318","Palme Acres Farms","MO","12650 State Highway M","red-meat non-poultry-meat","","farm","http://www.palmeacres.com","63390"
"West Plains","","36.846826","-91.738379","Peace Valley Poultry","MO","8290 CR 1980","pet-food poultry fowl soap body-care","","farm","www.freshchickenandturkey.com","65775"
"Napoleon","https://www.facebook.com/PlayHavenFarm","39.0615522","-94.0485164","PlayHaven Farm LLC","MO","3194 Oakwood Dr.","eggs poultry fowl red-meat non-poultry-meat","","farm","http://www.playhavenfarm.com/","64074"
"Eagle Rock ","Prier Farms Grassfed #0389","36.5594726","-93.7812378","Prier Farms Grassfed #0389","MO","25717 FR 1168","","","farm","","65641"
"Highlandville","https://www.facebook.com/pages/Purple-Gate-Farm/566680560033305","36.901720","-93.317071","Purple Gate Farm","MO","416 Poplar Drive","eggs poultry fowl","","farm","","65669"
"Seymour","","37.2556817","-92.7887619","Rachel's Goat & Chicken Farm","MO","624 Stringtown Rd","eggs fresh-fruits fresh-vegetables poultry fowl red-meat non-poultry-meat soap body-care","","farm","http://www.rachelsgoatfarm.com/","65746"
"Monett","","36.960386","-93.918396","Rausch's Blueberries","MO","21655 Hwy H","fresh-fruits","","farm","","65708"
"Malden ","https://www.facebook.com/SarasProduce","36.527500","-89.971274","Sara's Produce","MO","37013 State Highway 25 South","canned preserved eggs fresh-vegetables honey","","farm","","63863"
"Hermann","https://www.facebook.com/Schneider-Farms-162860030399928","38.5912056","-91.4205244","Schneider Farms LLC","MO","1784 Doll Road","eggs poultry fowl red-meat non-poultry-meat","","farm","www.schneiderfarmsllc.com","65041"
"Clever","https://www.facebook.com/Serendipityacresevans/","37.0244265","-93.4996849","Serendipity Acres, LLC","MO","1068 S Metzletein Rd","bedding plants canned preserved crafts woodworking cut-flowers eggs fresh-fruits fresh-vegetables honey maple-products mushrooms soap body-care","","farm","","65631"
"Platte City","http://www.facebook.com/?ref=tn_tnmn#%21/SerendipityFarmOrchard","39.321550","-94.845979","Serendipity Farm & Orchard","MO","12780 Jantzen Ln","baked-goods canned preserved cut-flowers eggs fresh-fruits fresh-vegetables","","farm","","64079"
"Gray Summit","https://www.facebook.com/pages/Seven-Gables-Farm/618425231566963?sk=timeline","38.492664","-90.862958","Seven Gables Farm","MO","4487 Elder Road Post Office Box 216","bedding plants canned preserved crafts woodworking cut-flowers dry beans eggs fresh-fruits fresh-vegetables mushrooms nursery-stock wine spirits beer hard-cider","","farm","sevengablesfarm.com","63089"
"Dittmer","www.facebook.com/StoneLeadyFarms","38.1978360","-90.7561350","Stone-Leady Farms","MO","8725 N Horseshoe Rd","dairy products fresh-vegetables red-meat non-poultry-meat soap body-care","","farm","www.stoneleadyfarms.com","63023"
"Rolla","https://www.facebook.com/TheBlueHillCo/","37.815275","-91.743907","The Blue Hill Company, LLC","MO","19410 State Route O","baked-goods canned preserved coffee tea honey nuts soap body-care","","farm","www.thebluehillco.com","65401"
"Eolia","","36.544949","-96.690674","Thistle Hill Plantation","MO","21505 Hwy OO","crafts woodworking eggs juices ciders maple-products red-meat non-poultry-meat","","farm","thistlehillplantation.com","63344"
"Forsyth","https://www.facebook.com/pages/Tri-Lakes-Orchards-LLC/279365858871273","36.729878","-93.032275","Tri-Lakes Orchards","MO","15920 US highway 160","fresh-vegetables","","farm","www.accounting-taxpros.com","65653"
"Hermann","","38.773117","-91.468241","Wil farm","MO","1002 Highway 19","bedding plants cut-flowers eggs fresh-fruits fresh-vegetables","","farm","wilfarm.org","65041"
"New Melle","https://www.facebook.com/PickingUpdate?ref=ts","38.708905","-90.878906","Wind Ridge Farm","MO","3511 Hwy F","fresh-vegetables","HTTPS://www.twitter.com/Pickingupdate","farm","Http://www.windridgefarm.net","63365"
"Arnold","https://www.facebook.com/arnoldfarmersmarket/?ref=settings","38.453275","-90.353093","Arnold Farmers Market","MO","2400 Bradley Beach Road","organic baked goods crafts flowers eggs herbs vegetables honey jams meat nuts plants poultry prepared-foods soap coffee beans fruits pet food wild","ArnoldFarmMarket","market","https://www.arnoldmo.org/government/departments/parks-recreation/arnold-farmers-market/","63010"
"Aurora","Aurora Local Farmers Market","36.9489080","-93.7201867","Aurora Local Farmer's Market - Summer Market","MO","2031 S. Elliott Ave.","baked goods crafts flowers eggs herbs vegetables jams plants prepared-foods soap fruits wild","","market","","65605"
"Belton ","https://www.facebook.com/BeltonMoFarmersMarket/","38.808556","-94.525252","Belton Farmers Market","MO","Memorial Park","baked goods crafts flowers eggs vegetables honey jams maple soap fruits","","market","","64012"
"Boonville","@BoonvilleMOFarmersMarket","38.955643","-92.741591","Boonville Farmers Market Inc","MO","1931 Boone Village Shopping Center","baked goods crafts flowers eggs herbs vegetables honey jams meat plants poultry soap fruits mushrooms","@boonfarmmarket","market","https://boonvillemofarmersmarket.weebly.com/","65233"
"Cape Girardeau","https://www.facebook.com/CapeRiverfrontMarket","37.302699","-89.519874","Cape Riverfront Market","MO","35 S. Spanish St.","baked goods cheese crafts flowers eggs seafood herbs vegetables honey jams maple meat nuts plants prepared-foods soap trees coffee beans fruits mushrooms pet food","","market","http://www.downtowncapegirardeau.com/cape-riverfront-market/","63701"
"Carrollton","https://www.facebook.com/CarrolltonFarmersMarket","39.358097","-93.496941","Carrollton Farmers Market","MO","Carrollton Uptown Square","organic baked goods crafts eggs herbs vegetables honey jams plants prepared-foods fruits","","market","","64633"
"Columbia","https://www.facebook.com/ColumbiaFarmersMarket","38.958293","-92.364624","Columbia Farmers Market","MO","1769 West Ash Street","organic baked goods cheese crafts flowers eggs seafood herbs vegetables honey jams meat nuts plants poultry prepared-foods soap trees coffee beans fruits juices mushrooms wild","https://twitter.com/comofarmers","market","http://columbiafarmersmarket.org","65203"
"DeSoto","https://www.facebook.com/cultivatingfoodandcommunity","38.143674","-90.552205","De Soto Farmers' Market","MO","520 N. Main St.","baked goods crafts flowers eggs herbs vegetables honey jams meat plants poultry soap trees coffee fruits grains mushrooms","","market","https://gethealthydesoto.org/","63020"
"Joplin","https://www.facebook.com/JoplinEmpireMarket","37.087883","-94.502691","Empire Market","MO","931 E 4th St","organic baked goods cheese crafts flowers eggs herbs vegetables honey jams meat nuts plants poultry prepared-foods soap wine coffee fruits mushrooms","https://twitter.com/TheEmpireMarket","market","https://downtownjoplin.com/joplin-empire-market/","64801"
"Springfield","https://www.facebook.com/FMOZARKS/","37.136365","-93.255076","Farmers Market of the Ozarks","MO","2144 E Republic Rd","organic baked goods cheese crafts flowers eggs seafood herbs vegetables honey meat nuts plants poultry prepared-foods soap wine coffee fruits grains juices mushrooms wild","https://twitter.com/FMOzarks","market","http://www.LoveYourFarmer.com","65804"
"Ferguson","https://www.facebook.com/FergusonFarmersMarket/","38.7375795","-90.3027133","Ferguson Farmers' Market","MO","Plaza 501, 501 S. Florissant Rd.","organic baked goods crafts flowers eggs herbs vegetables honey plants prepared-foods soap wine coffee fruits grains","","market","http://fergusonfarmersmarket.com/","63135"
"Joplin","","37.0526877","-94.5268459","Freeman Health System, West - Farmers Market","MO","1102 W 32nd Street","baked goods flowers eggs vegetables honey jams meat poultry fruits","","market","","64801"
"Gladstone","https://www.facebook.com/pages/Gladstone-Farmers-Market/107406389284555?fref=ts","39.2214548","-94.5730016","Gladstone Farmers' Market","MO","602 NE 70th Street","baked goods crafts flowers eggs herbs vegetables honey jams meat plants beans fruits","","market","http://www.gladstone.mo.us/farmersmarket/","64118"
"Hillsboro","","38.232278","-90.566655","Hillsboro Farmers Market","MO","5137 Glade Chapel Road","baked goods vegetables honey jams meat plants poultry soap trees fruits juices mushrooms","","market","http://www.kressfarm.org","63050"
"Holden","https://www.facebook.com/holdenmarket","38.7186566","-93.9908869","Holden MO Farmer's Market","MO","101 S Market St.","baked goods crafts vegetables jams plants prepared-foods soap fruits pet food wild","","market","","64040"
"Independence ","","39.093845","-94.418179","INDEPENDENCE UPTOWN MARKET","MO","211 W. Truman Rd.","baked goods crafts flowers eggs vegetables honey jams meat nuts plants soap fruits","","market","http://independenceuptownmarket.com","64050"
"Jackson ","Jackson Farmers Market","37.3778137","-89.6659726","Jackson (MO) Farmers Market","MO","252 E. Jackson Blvd.","baked goods crafts eggs herbs vegetables honey jams maple nuts plants soap fruits","","market","","63755"
"Kirksville","Kirksville Kiwanis Farmers' Market","40.195114","-92.584293","Kirksville Kiwanis Farmers' Market","MO","100 North Elson Street","baked goods crafts flowers eggs herbs vegetables honey jams meat plants poultry prepared-foods soap trees fruits juices","","market","","63501"
"Edina","https://www.facebook.com/KnoxCountyMOFarmersMarket","40.167824","-92.172403","Knox County Farmers Market","MO","107 N 4th St","baked goods crafts flowers eggs herbs vegetables honey jams plants prepared-foods soap fruits","","market","https://knoxcountyfarmersmarket.wordpress.com/","63537"
"Seymour","https://www.facebook.com/PleasantValleyFamilyFarm/","37.118045","-92.680159","Little Farm Store Market","MO","520 Lucky Road","baked goods crafts flowers eggs herbs vegetables honey jams plants prepared-foods soap coffee fruits mushrooms","","market","","65746"
"Louisiana ","Louisiana Community Betterment Farmers Market","39.441188","-91.062659","Louisiana Community Betterment Farmer's Market","MO","Sunset Park, Georgia Street","baked goods crafts flowers eggs herbs vegetables honey jams maple nuts plants prepared-foods soap fruits juices","","market","","63353"
"University City","https://www.facebook.com/Midtown-Farmers-Market-655879797806495/","38.656378","-90.307251","Midtown Farmers Market","MO","6655 Delmar Blvd, Back Lot","organic baked goods cheese crafts flowers eggs seafood herbs vegetables honey jams meat nuts plants poultry prepared-foods soap trees coffee fruits juices mushrooms pet food wild","https://twitter.com/MidtownFmsMkt","market","http://www.midwestfarmersmarkets.org/markets/midtown-farmers-market/","63130"
"Downtown Neosho","https://www.facebook.com/NeoshoFarmersMarket","36.870009","-94.370028","Neosho Farmers Market","MO","Spring & Jefferson St","baked goods cheese crafts flowers eggs herbs vegetables honey meat plants poultry prepared-foods soap trees coffee fruits juices","","market","http://neoshofarmersmarket@gmail.com","64850"
"Parkville","https://www.facebook.com/pages/Parkville-Farmers-Market","39.187828","-94.683086","Parkville Farmers' Market","MO","English Landing Park, off Hwy 9 in Parkville MO","baked goods crafts flowers eggs herbs vegetables honey jams meat plants prepared-foods soap coffee fruits wild","","market","http://www.parkvillefarmersmarket.com",""
"Rogersville","https://www.facebook.com/rogersvillefriendsofthepark/","37.115153","-93.066381","Rogersville Farmer's Market","MO","270 County Line Road","baked goods crafts flowers eggs herbs vegetables honey jams meat plants poultry prepared-foods soap trees coffee fruits juices mushrooms pet food","","market","","65741"
"Sedalia, MO","https://www.facebook.com/SedaliaFarmersMarket/","38.698011","-93.255481","Sedalia Area Farmers' Market","MO","2233 W 16th St","baked goods crafts flowers eggs herbs vegetables honey jams meat plants poultry prepared-foods soap coffee beans fruits grains juices mushrooms pet food wild","","market","http://www.sedaliaareafarmersmarket.com/","65301"
"St. Joseph ","Southside Junction Farmers Market","39.718654","-94.865955","South St. Joseph Farmers Market at the Junction","MO","Lake & Illinois Avenues","baked goods crafts flowers eggs herbs vegetables honey jams nuts plants prepared-foods soap fruits juices mushrooms pet food wild","","market","","64504"
"Steelville","https://www.facebook.com/SteelvilleMarket/","37.967138","-91.358368","Steelville Farmer & Artist Saturday Morning Market","MO","392 Main St","baked goods cheese crafts flowers eggs herbs vegetables honey jams plants soap fruits wild","","market","","65565"
"Steelville","https://www.facebook.com/SteelvilleMarket/","37.966076","-91.359291","Steelville Farmer & Artist Wednesday Night Market","MO","Hoppe Spring Park, Church Street","baked goods cheese crafts flowers eggs vegetables honey jams plants soap fruits wild","","market","","65565"
"Nevada","Nevada Vernon County Farmers Market","37.843772","-94.340102","Vernon County Farmers Market","MO","PO Box 873","baked goods flowers eggs herbs vegetables honey jams meat plants poultry soap fruits pet food","","market","","64772"
"Webb City","https://www.facebook.com/WebbCityFarmersMarket","37.140206","-94.462592","Webb City Farmers Market","MO","106 East Tracy Street","baked goods crafts flowers eggs seafood herbs vegetables honey meat nuts plants poultry prepared-foods soap coffee fruits mushrooms","","market","http://www.webbcityfarmersmarket.com/","64870"
"West Plains","www.facebook.com/WestPlainsAreaFarmersMarket/","36.723987","-91.835774","West Plains Area Farmers' Market","MO","1380 Bill Virdon Blvd.","organic baked goods crafts eggs herbs vegetables honey jams plants poultry soap fruits","","market","","65775"
